IRIDIUM 57              
1 25273U 98019B   24289.82096831  .00001214  00000+0  41579-3 0  9994
2 25273  86.3941 247.5567 0002409  88.0509 272.0963 14.35487508389726
IRIDIUM 63              
1 25286U 98021B   24289.65724173  .00001191  00000+0  40268-3 0  9997
2 25286  86.4054 184.6056 0002243  77.0522 283.0925 14.36098719388743
IRIDIUM 69              
1 25319U 98026A   24289.71737441  .00001627  00000+0  50666-3 0  9995
2 25319  86.4049 198.5834 0004618  95.8527 264.3199 14.40402043387864
IRIDIUM 71              
1 25320U 98026B   24289.83087420  .00001243  00000+0  38341-3 0  9995
2 25320  86.4049 193.2793 0003143 124.9314 235.2181 14.40673683388401
IRIDIUM 73              
1 25344U 98032C   24289.86747446  .00001430  00000+0  35653-3 0  9993
2 25344  86.4440 150.5390 0002833  88.2702 271.8827 14.51005656395120
IRIDIUM 82              
1 25467U 98051A   24289.91299849  .00027755  00000+0  11974-2 0  9992
2 25467  86.3754 228.2294 0117700 133.0704 228.0465 15.16233364386741
